NORAD_CAT_ID,OBJECT_NAME,OBJECT_TYPE,EPOCH,MEAN_MOTION,ECCENTRICITY,INCLINATION,RA_OF_ASC_NODE,ARG_OF_PERICENTER,MEAN_ANOMALY,BSTAR,MEAN_MOTION_DOT,MEAN_MOTION_DDOT,TLE_LINE0,TLE_LINE1,TLE_LINE2,SEMIMAJOR_AXIS,PERIOD,APOGEE,PERIGEE,DECAYED
53550.0,STARLINK-4518,PAYLOAD,2022-11-27 14:08:57,15.08839692,0.0001729,53.2194,42.5929,48.6608,311.4533,-8.5226e-05,-1.644e-05,0.0,0 STARLINK-4518,1 53550U 22101Z   22331.58955408 -.00001644  00000-0 -85226-4 0  9993,2 53550  53.2194  42.5929 0001729  48.6608 311.4533 15.08839692 16093,6917.880999999999,95.438,540.942,538.55,0.0
53550.0,STARLINK-4518,PAYLOAD,2022-11-27 23:41:16,15.08830776,0.0001748,53.2195,40.8088,46.8452,313.2686,-0.00012363,-2.255e-05,0.0,0 STARLINK-4518,1 53550U 22101Z   22331.98699980 -.00002255  00000-0 -12363-3 0  9997,2 53550  53.2195  40.8088 0001748  46.8452 313.2686 15.08830776 15495,6917.909000000002,95.438,540.9830000000002,538.564,0.0
53550.0,STARLINK-4518,PAYLOAD,2022-11-28 10:48:58,15.08840819,0.0001785,53.2194,38.7271,47.9243,312.1901,0.00011896,1.606e-05,0.0,0 STARLINK-4518,1 53550U 22101Z   22332.45067786  .00001606  00000-0  11896-3 0  9990,2 53550  53.2194  38.7271 0001785  47.9243 312.1901 15.08840819 15560,6917.878000000002,95.438,540.9780000000002,538.508,0.0
53550.0,STARLINK-4518,PAYLOAD,2022-11-29 02:42:50,15.08835138,0.0001932,53.2198,35.7553,48.1305,311.9852,0.00015952,2.251e-05,0.0,0 STARLINK-4518,1 53550U 22101Z   22333.11308439  .00002251  00000-0  15952-3 0  9991,2 53550  53.2198  35.7553 0001932  48.1305 311.9852 15.08835138 15661,6917.895,95.438,541.097,538.424,0.0
53550.0,STARLINK-4518,PAYLOAD,2022-11-29 10:39:46,15.08843175,0.0001905,53.2199,34.2678,44.6005,315.514,0.00030797,4.617e-05,0.0,0 STARLINK-4518,1 53550U 22101Z   22333.44428321  .00004617  00000-0  30797-3 0  9992,2 53550  53.2199  34.2678 0001905  44.6005 315.5140 15.08843175 16371,6917.871,95.437,541.054,538.418,0.0
53550.0,STARLINK-4518,PAYLOAD,2022-11-30 12:05:56,15.08849971,0.0001978,53.2198,29.5094,47.5566,312.5593,0.00028376,4.232e-05,0.0,0 STARLINK-4518,1 53550U 22101Z   22334.50412047  .00004232  00000-0  28376-3 0  9991,2 53550  53.2198  29.5094 0001978  47.5566 312.5593 15.08849971 16530,6917.85,95.437,541.0830000000002,538.347,0.0
53550.0,STARLINK-4518,PAYLOAD,2022-12-01 13:32:06,15.08835157,0.0001905,53.2207,24.7525,45.3586,314.7562,1.556e-05,-4.1e-07,0.0,0 STARLINK-4518,1 53550U 22101Z   22335.56396793 -.00000041  00000-0  15560-4 0  9994,2 53550  53.2207  24.7525 0001905  45.3586 314.7562 15.08835157 16693,6917.895,95.438,541.078,538.442,0.0
53550.0,STARLINK-4518,PAYLOAD,2022-12-01 15:07:29,15.08836776,0.0001831,53.2205,24.455,45.2387,314.8754,2.5541e-05,1.18e-06,0.0,0 STARLINK-4518,1 53550U 22101Z   22335.63020599  .00000118  00000-0  25541-4 0  9994,2 53550  53.2205  24.4550 0001831  45.2387 314.8754 15.08836776 16043,6917.89,95.438,541.0219999999998,538.489,0.0
53550.0,STARLINK-4518,PAYLOAD,2022-12-01 19:53:38,15.08843524,0.0001921,53.2205,23.5631,43.9046,316.2098,2.7112e-05,1.43e-06,0.0,0 STARLINK-4518,1 53550U 22101Z   22335.82892124  .00000143  00000-0  27112-4 0  9990,2 53550  53.2205  23.5631 0001921  43.9046 316.2098 15.08843524 16732,6917.87,95.437,541.064,538.406,0.0
53550.0,STARLINK-4518,PAYLOAD,2022-12-02 02:15:11,15.08846164,0.0001822,53.2204,22.3732,41.6923,318.4207,7.971100000000001e-05,9.81e-06,0.0,0 STARLINK-4518,1 53550U 22101Z   22336.09387759  .00000981  00000-0  79711-4 0  9995,2 53550  53.2204  22.3732 0001822  41.6923 318.4207 15.08846164 16110,6917.861999999999,95.437,540.987,538.466,0.0
53550.0,STARLINK-4518,PAYLOAD,2022-12-02 11:47:30,15.08842744,0.0001740999999999,53.2207,20.5892,42.1157,317.9969,5.6143e-05,6.06e-06,0.0,0 STARLINK-4518,1 53550U 22101Z   22336.49132025  .00000606  00000-0  56143-4 0  9991,2 53550  53.2207  20.5892 0001741  42.1157 317.9969 15.08842744 16833,6917.871999999999,95.437,540.941,538.533,0.0
53550.0,STARLINK-4518,PAYLOAD,2022-12-02 19:44:25,15.08846173,0.0001844,53.2207,19.1024,38.9858,321.1266,4.5886e-05,4.42e-06,0.0,0 STARLINK-4518,1 53550U 22101Z   22336.82251697  .00000442  00000-0  45886-4 0  9995,2 53550  53.2207  19.1024 0001844  38.9858 321.1266 15.08846173 16881,6917.861999999999,95.437,541.002,538.451,0.0
53550.0,STARLINK-4518,PAYLOAD,2022-12-03 02:05:58,15.0883452,0.0001939,53.2213,17.9151,46.5985,313.5168,0.00011841,1.597e-05,0.0,0 STARLINK-4518,1 53550U 22101Z   22337.08748412  .00001597  00000-0  11841-3 0  9995,2 53550  53.2213  17.9151 0001939  46.5985 313.5168 15.08834520 16267,6917.897,95.438,541.104,538.4209999999998,0.0
53550.0,STARLINK-4518,PAYLOAD,2022-12-03 10:02:54,15.08855422,0.0001818,53.2214,16.4282,38.0614,322.0506,-0.00023135,-3.97e-05,0.0,0 STARLINK-4518,1 53550U 22101Z   22337.41868156 -.00003970  00000-0 -23135-3 0  9998,2 53550  53.2214  16.4282 0001818  38.0614 322.0506 15.08855422 16319,6917.833000000001,95.437,540.956,538.441,0.0
53550.0,STARLINK-4518,PAYLOAD,2022-12-03 11:38:17,15.08831337,0.0001923,53.2212,16.131,43.5674,316.547,0.00010043,1.31e-05,0.0,0 STARLINK-4518,1 53550U 22101Z   22337.48492872  .00001310  00000-0  10043-3 0  9991,2 53550  53.2212  16.1310 0001923  43.5674 316.5470 15.08831337 16980,6917.906999999997,95.438,541.102,538.442,0.0
53550.0,STARLINK-4518,PAYLOAD,2022-12-04 09:53:41,15.08837849,0.0001995,53.2209,11.966,38.25,321.8634,8.345600000000001e-05,1.04e-05,0.0,0 STARLINK-4518,1 53550U 22101Z   22338.41228862  .00001040  00000-0  83456-4 0  9990,2 53550  53.2209  11.9660 0001995  38.2500 321.8634 15.08837849 17127,6917.887,95.438,541.132,538.372,0.0
53550.0,STARLINK-4518,PAYLOAD,2022-12-04 19:25:59,15.08848948,0.0001919,53.2204,10.1824,37.8985,322.2142,0.00013453,1.854e-05,0.0,0 STARLINK-4518,1 53550U 22101Z   22338.80972105  .00001854  00000-0  13453-3 0  9991,2 53550  53.2204  10.1824 0001919  37.8985 322.2142 15.08848948 17180,6917.853,95.437,541.0459999999998,538.391,0.0
53550.0,STARLINK-4518,PAYLOAD,2022-12-05 08:09:05,15.08844726,0.0002124,53.2212,7.8039,44.5269,315.5894,0.0002047,2.972e-05,0.0,0 STARLINK-4518,1 53550U 22101Z   22339.33964479  .00002972  00000-0  20470-3 0  9994,2 53550  53.2212   7.8039 0002124  44.5269 315.5894 15.08844726 16604,6917.866,95.437,541.2,538.262,0.0
53550.0,STARLINK-4518,PAYLOAD,2022-12-05 19:16:46,15.08852637,0.0002109,53.2199,5.7217,42.3977,317.7177,0.0002034,2.952e-05,0.0,0 STARLINK-4518,1 53550U 22101Z   22339.80331985  .00002952  00000-0  20340-3 0  9990,2 53550  53.2199   5.7217 0002109  42.3977 317.7177 15.08852637 17337,6917.842,95.437,541.1659999999998,538.248,0.0
53550.0,STARLINK-4518,PAYLOAD,2022-12-06 11:10:38,15.08843199,0.0002084,53.2203,2.7502,40.3052,319.8094,1.8573e-05,7e-08,0.0,0 STARLINK-4518,1 53550U 22101Z   22340.46572117  .00000007  00000-0  18573-4 0  9993,2 53550  53.2203   2.7502 0002084  40.3052 319.8094 15.08843199 17436,6917.871,95.437,541.177,538.294,0.0
53550.0,STARLINK-4518,PAYLOAD,2022-12-06 19:07:34,15.08830262,0.0002131,53.2189,1.2621,41.1815,318.9337,-0.00021554,-3.716e-05,0.0,0 STARLINK-4518,1 53550U 22101Z   22340.79692728 -.00003716  00000-0 -21554-3 0  9994,2 53550  53.2189   1.2621 0002131  41.1815 318.9337 15.08830262 16823,6917.91,95.438,541.249,538.3009999999998,0.0
53550.0,STARLINK-4518,PAYLOAD,2022-12-07 09:26:02,15.08838782,0.0002113,53.2192,358.5859,40.014,320.1007,6.0158e-05,6.69e-06,0.0,0 STARLINK-4518,1 53550U 22101Z   22341.39308747  .00000669  00000-0  60158-4 0  9992,2 53550  53.2192 358.5859 0002113  40.0140 320.1007 15.08838782 16911,6917.884,95.438,541.211,538.2869999999998,0.0
53550.0,STARLINK-4518,PAYLOAD,2022-12-07 12:36:48,15.08842472,0.0002121,53.2193,357.9912,39.9221,320.1927,0.00016272,2.303e-05,0.0,0 STARLINK-4518,1 53550U 22101Z   22341.52556705  .00002303  00000-0  16272-3 0  9990,2 53550  53.2193 357.9912 0002121  39.9221 320.1927 15.08842472 17598,6917.873000000001,95.437,541.205,538.271,0.0
53550.0,STARLINK-4518,PAYLOAD,2022-12-08 10:52:12,15.08858093,0.0002201,53.2194,353.8281,40.4446,319.6709,0.00071669,0.00011142,0.0,0 STARLINK-4518,1 53550U 22101Z   22342.45292431  .00011142  00000-0  71669-3 0  9998,2 53550  53.2194 353.8281 0002201  40.4446 319.6709 15.08858093 17731,6917.825,95.436,541.2130000000002,538.1669999999998,0.0
53550.0,STARLINK-4518,PAYLOAD,2022-12-09 12:18:23,15.08839329,0.0002107,53.2195,349.0706,41.1812,318.9339,3.1071e-05,2.06e-06,0.0,0 STARLINK-4518,1 53550U 22101Z   22343.51276854  .00000206  00000-0  31071-4 0  9990,2 53550  53.2195 349.0706 0002107  41.1812 318.9339 15.08839329 17890,6917.882,95.438,541.205,538.29,0.0
53550.0,STARLINK-4518,PAYLOAD,2022-12-10 12:09:10,15.08842012,0.000192,53.2196,344.6099,44.8863,315.2284,0.00013921,1.928e-05,0.0,0 STARLINK-4518,1 53550U 22101Z   22344.50636907  .00001928  00000-0  13921-3 0  9994,2 53550  53.2196 344.6099 0001920  44.8863 315.2284 15.08842012 18045,6917.874,95.437,541.067,538.411,0.0
53550.0,STARLINK-4518,PAYLOAD,2022-12-11 08:49:11,15.08839338,0.0002262,53.22,340.7458,38.4932,321.6221,0.00016262,2.301e-05,0.0,0 STARLINK-4518,1 53550U 22101Z   22345.36749295  .00002301  00000-0  16262-3 0  9991,2 53550  53.2200 340.7458 0002262  38.4932 321.6221 15.08839338 17513,6917.882,95.438,541.312,538.183,0.0
53550.0,STARLINK-4518,PAYLOAD,2022-12-12 11:50:44,15.0883751,0.0002085,53.2197,335.6895,42.6877,317.4277,7.9477e-05,9.77e-06,0.0,0 STARLINK-4518,1 53550U 22101Z   22346.49357575  .00000977  00000-0  79477-4 0  9997,2 53550  53.2197 335.6895 0002085  42.6877 317.4277 15.08837510 18340,6917.888000000001,95.438,541.195,538.311,0.0
53550.0,STARLINK-4518,PAYLOAD,2022-12-13 11:41:31,15.08841683,0.0002176,53.2199,331.2301,39.4354,320.6796,9.3805e-05,1.205e-05,0.0,0 STARLINK-4518,1 53550U 22101Z   22347.48717546  .00001205  00000-0  93805-4 0  9991,2 53550  53.2199 331.2301 0002176  39.4354 320.6796 15.08841683 18495,6917.875,95.437,541.246,538.235,0.0
